[{"OBJECT_NAME":"STARLINK-30602","OBJECT_ID":"2023-160G","EPOCH":"2026-03-09T01:02:16.046592","MEAN_MOTION":15.22911342,"ECCENTRICITY":8.15e-5,"INCLINATION":43.0026,"RA_OF_ASC_NODE":81.8046,"ARG_OF_PERICENTER":268.3637,"MEAN_ANOMALY":91.712,"EPHEMERIS_TYPE":0,"CLASSIFICATION_TYPE":"U","NORAD_CAT_ID":58081,"ELEMENT_SET_NO":999,"REV_AT_EPOCH":13284,"BSTAR":0.00020841055,"MEAN_MOTION_DOT":4.737e-5,"MEAN_MOTION_DDOT":0},{"OBJECT_NAME":"CZ-6A DEB","OBJECT_ID":"2022-151ADD","EPOCH":"2026-03-09T18:20:47.462208","MEAN_MOTION":15.20298953,"ECCENTRICITY":0.00285544,"INCLINATION":98.6309,"RA_OF_ASC_NODE":152.6578,"ARG_OF_PERICENTER":173.2603,"MEAN_ANOMALY":186.9019,"EPHEMERIS_TYPE":0,"CLASSIFICATION_TYPE":"U","NORAD_CAT_ID":56285,"ELEMENT_SET_NO":999,"REV_AT_EPOCH":17182,"BSTAR":0.0066325049,"MEAN_MOTION_DOT":0.00148374,"MEAN_MOTION_DDOT":0}]
